{"type": "FeatureCollection", "features": [ {"type": "Feature", "properties": {"norad_id": 35023, "name": "COSMOS 2251 DEB", "group": "cosmos-2251-debris", "lat": -19.115257249477093, "lon": -177.73026956194315, "alt_km": 580.1396120260897, "timestamp": "2025-12-24T22:42:22.429960+00:00", "meta": {"OBJECT_NAME": "COSMOS 2251 DEB", "OBJECT_ID": "1993-036AGL", "EPOCH": "2025-12-23T23:23:24.047232", "MEAN_MOTION": 14.95423694, "ECCENTRICITY": 0.0033581, "INCLINATION": 74.0361, "RA_OF_ASC_NODE": 189.9231, "ARG_OF_PERICENTER": 266.1262, "MEAN_ANOMALY": 245.7203, "EPHEMERIS_TYPE": 0, "CLASSIFICATION_TYPE": "U", "NORAD_CAT_ID": 35023, "ELEMENT_SET_NO": 999, "REV_AT_EPOCH": 88447, "BSTAR": 0.0015054, "MEAN_MOTION_DOT": 0.00016832, "MEAN_MOTION_DDOT": 0}, "tle": {"line1": "1 35023U 93036AGL 25357.97458388  .00016832  00000+0  15054-2 0  9994", "line2": "2 35023  74.0361 189.9231 0033581 266.1262 245.7203 14.95423694884475"}}, "geometry": {"type": "Point", "coordinates": [-177.73026956194315, -19.115257249477093]}}, {"type": "Feature", "properties": {"norad_id": 35025, "name": "COSMOS 2251 DEB", "group": "cosmos-2251-debris", "lat": 33.46161014878248, "lon": -151.96473554712145, "alt_km": 707.7820150056232, "timestamp": "2025-12-24T22:42:22.429971+00:00", "meta": {"OBJECT_NAME": "COSMOS 2251 DEB", "OBJECT_ID": "1993-036AGN", "EPOCH": "2025-12-24T02:28:58.594944", "MEAN_MOTION": 14.7276366, "ECCENTRICITY": 0.00856656, "INCLINATION": 73.9377, "RA_OF_ASC_NODE": 40.6629, "ARG_OF_PERICENTER": 311.0935, "MEAN_ANOMALY": 48.2859, "EPHEMERIS_TYPE": 0, "CLASSIFICATION_TYPE": "U", "NORAD_CAT_ID": 35025, "ELEMENT_SET_NO": 999, "REV_AT_EPOCH": 88810, "BSTAR": 0.00042526894, "MEAN_MOTION_DOT": 2.843e-05, "MEAN_MOTION_DDOT": 0}, "tle": {"line1": "1 35025U 93036AGN 25358.10345596  .00002843  00000+0  42527-3 0  9991", "line2": "2 35025  73.9377  40.6629 0085665 311.0935  48.2859 14.72763660888105"}}, "geometry": {"type": "Point", "coordinates": [-151.96473554712145, 33.46161014878248]}}, {"type": "Feature", "properties": {"norad_id": 35026, "name": "COSMOS 2251 DEB", "group": "cosmos-2251-debris", "lat": -68.67877332473952, "lon": 162.89137345194152, "alt_km": 771.4071199265745, "timestamp": "2025-12-24T22:42:22.429981+00:00", "meta": {"OBJECT_NAME": "COSMOS 2251 DEB", "OBJECT_ID": "1993-036AGP", "EPOCH": "2025-12-18T03:45:00.139104", "MEAN_MOTION": 14.53626797, "ECCENTRICITY": 0.0082422, "INCLINATION": 74.047, "RA_OF_ASC_NODE": 308.5764, "ARG_OF_PERICENTER": 60.5026, "MEAN_ANOMALY": 318.4835, "EPHEMERIS_TYPE": 0, "CLASSIFICATION_TYPE": "U", "NORAD_CAT_ID": 35026, "ELEMENT_SET_NO": 999, "REV_AT_EPOCH": 88222, "BSTAR": 6.097601e-05, "MEAN_MOTION_DOT": 2.37e-06, "MEAN_MOTION_DDOT": 0}, "tle": {"line1": "1 35026U 93036AGP 25352.15625161  .00000237  00000+0  60976-4 0  9994", "line2": "2 35026  74.0470 308.5764 0082422  60.5026 318.4835 14.53626797882224"}}, "geometry": {"type": "Point", "coordinates": [162.89137345194152, -68.67877332473952]}}, {"type": "Feature", "properties": {"norad_id": 35028, "name": "COSMOS 2251 DEB", "group": "cosmos-2251-debris", "lat": 39.05041681383407, "lon": 54.393969337150914, "alt_km": 730.5228670955103, "timestamp": "2025-12-24T22:42:22.429991+00:00", "meta": {"OBJECT_NAME": "COSMOS 2251 DEB", "OBJECT_ID": "1993-036AGR", "EPOCH": "2025-12-21T04:06:01.501344", "MEAN_MOTION": 14.56577596, "ECCENTRICITY": 0.00828284, "INCLINATION": 74.0382, "RA_OF_ASC_NODE": 254.9813, "ARG_OF_PERICENTER": 26.387, "MEAN_ANOMALY": 123.709, "EPHEMERIS_TYPE": 0, "CLASSIFICATION_TYPE": "U", "NORAD_CAT_ID": 35028, "ELEMENT_SET_NO": 999, "REV_AT_EPOCH": 88408, "BSTAR": 7.219211e-05, "MEAN_MOTION_DOT": 3.06e-06, "MEAN_MOTION_DDOT": 0}, "tle": {"line1": "1 35028U 93036AGR 25355.17085071  .00000306  00000+0  72192-4 0  9991", "line2": "2 35028  74.0382 254.9813 0082828  26.3870 123.7090 14.56577596884085"}}, "geometry": {"type": "Point", "coordinates": [54.393969337150914, 39.05041681383407]}}, {"type": "Feature", "properties": {"norad_id": 35031, "name": "COSMOS 2251 DEB", "group": "cosmos-2251-debris", "lat": -31.525248457553896, "lon": -133.3359777413594, "alt_km": 756.0105475524188, "timestamp": "2025-12-24T22:42:22.430002+00:00", "meta": {"OBJECT_NAME": "COSMOS 2251 DEB", "OBJECT_ID": "1993-036AGU", "EPOCH": "2025-12-23T10:08:01.971456", "MEAN_MOTION": 14.38304454, "ECCENTRICITY": 0.00192871, "INCLINATION": 74.0377, "RA_OF_ASC_NODE": 239.5823, "ARG_OF_PERICENTER": 331.1416, "MEAN_ANOMALY": 28.8669, "EPHEMERIS_TYPE": 0, "CLASSIFICATION_TYPE": "U", "NORAD_CAT_ID": 35031, "ELEMENT_SET_NO": 999, "REV_AT_EPOCH": 65437, "BSTAR": 0.00014374392, "MEAN_MOTION_DOT": 4.12e-06, "MEAN_MOTION_DDOT": 0}, "tle": {"line1": "1 35031U 93036AGU 25357.42224504  .00000412  00000+0  14374-3 0  9996", "line2": "2 35031  74.0377 239.5823 0019287 331.1416  28.8669 14.38304454654370"}}, "geometry": {"type": "Point", "coordinates": [-133.3359777413594, -31.525248457553896]}}, {"type": "Feature", "properties": {"norad_id": 35032, "name": "COSMOS 2251 DEB", "group": "cosmos-2251-debris", "lat": 11.064804038777279, "lon": -12.98560207622318, "alt_km": 745.9153001829063, "timestamp": "2025-12-24T22:42:22.430012+00:00", "meta": {"OBJECT_NAME": "COSMOS 2251 DEB", "OBJECT_ID": "1993-036AGV", "EPOCH": "2025-12-23T17:50:58.826688", "MEAN_MOTION": 14.58804083, "ECCENTRICITY": 0.00676115, "INCLINATION": 73.8518, "RA_OF_ASC_NODE": 346.0812, "ARG_OF_PERICENTER": 195.466, "MEAN_ANOMALY": 344.2836, "EPHEMERIS_TYPE": 0, "CLASSIFICATION_TYPE": "U", "NORAD_CAT_ID": 35032, "ELEMENT_SET_NO": 999, "REV_AT_EPOCH": 87834, "BSTAR": 0.00076532067, "MEAN_MOTION_DOT": 3.663e-05, "MEAN_MOTION_DDOT": 0}, "tle": {"line1": "1 35032U 93036AGV 25357.74373642  .00003663  00000+0  76532-3 0  9995", "line2": "2 35032  73.8518 346.0812 0067611 195.4660 344.2836 14.58804083878344"}}, "geometry": {"type": "Point", "coordinates": [-12.98560207622318, 11.064804038777279]}}, {"type": "Feature", "properties": {"norad_id": 35033, "name": "COSMOS 2251 DEB", "group": "cosmos-2251-debris", "lat": 49.11099239785828, "lon": 172.92918143658957, "alt_km": 726.8278302003464, "timestamp": "2025-12-24T22:42:22.430023+00:00", "meta": {"OBJECT_NAME": "COSMOS 2251 DEB", "OBJECT_ID": "1993-036AGW", "EPOCH": "2025-12-19T05:07:27.625152", "MEAN_MOTION": 14.50959586, "ECCENTRICITY": 0.001448, "INCLINATION": 74.0251, "RA_OF_ASC_NODE": 164.3945, "ARG_OF_PERICENTER": 270.8601, "MEAN_ANOMALY": 89.0901, "EPHEMERIS_TYPE": 0, "CLASSIFICATION_TYPE": "U", "NORAD_CAT_ID": 35033, "ELEMENT_SET_NO": 999, "REV_AT_EPOCH": 66021, "BSTAR": 0.00048139, "MEAN_MOTION_DOT": 1.877e-05, "MEAN_MOTION_DDOT": 0}, "tle": {"line1": "1 35033U 93036AGW 25353.21351418  .00001877  00000+0  48139-3 0  9998", "line2": "2 35033  74.0251 164.3945 0014480 270.8601  89.0901 14.50959586660212"}}, "geometry": {"type": "Point", "coordinates": [172.92918143658957, 49.11099239785828]}}, {"type": "Feature", "properties": {"norad_id": 35038, "name": "COSMOS 2251 DEB", "group": "cosmos-2251-debris", "lat": -33.44966746957542, "lon": 9.816601315431349, "alt_km": 747.0601418011529, "timestamp": "2025-12-24T22:42:22.430033+00:00", "meta": {"OBJECT_NAME": "COSMOS 2251 DEB", "OBJECT_ID": "1993-036AHB", "EPOCH": "2025-12-16T02:43:57.942048", "MEAN_MOTION": 14.25166694, "ECCENTRICITY": 0.01140711, "INCLINATION": 74.1077, "RA_OF_ASC_NODE": 36.5236, "ARG_OF_PERICENTER": 19.3791, "MEAN_ANOMALY": 9.3469, "EPHEMERIS_TYPE": 0, "CLASSIFICATION_TYPE": "U", "NORAD_CAT_ID": 35038, "ELEMENT_SET_NO": 999, "REV_AT_EPOCH": 85617, "BSTAR": 0.00096319549, "MEAN_MOTION_DOT": 2.397e-05, "MEAN_MOTION_DDOT": 0}, "tle": {"line1": "1 35038U 93036AHB 25350.11386507  .00002397  00000+0  96320-3 0  9999", "line2": "2 35038  74.1077  36.5236 0114071  19.3791   9.3469 14.25166694856178"}}, "geometry": {"type": "Point", "coordinates": [9.816601315431349, -33.44966746957542]}}, {"type": "Feature", "properties": {"norad_id": 35043, "name": "COSMOS 2251 DEB", "group": "cosmos-2251-debris", "lat": -62.724676171555004, "lon": -12.427585562544632, "alt_km": 613.922247101058, "timestamp": "2025-12-24T22:42:22.430044+00:00", "meta": {"OBJECT_NAME": "COSMOS 2251 DEB", "OBJECT_ID": "1993-036AHG", "EPOCH": "2025-12-21T08:52:47.877312", "MEAN_MOTION": 14.7734035, "ECCENTRICITY": 0.00957897, "INCLINATION": 73.9513, "RA_OF_ASC_NODE": 28.5607, "ARG_OF_PERICENTER": 236.5232, "MEAN_ANOMALY": 122.6761, "EPHEMERIS_TYPE": 0, "CLASSIFICATION_TYPE": "U", "NORAD_CAT_ID": 35043, "ELEMENT_SET_NO": 999, "REV_AT_EPOCH": 67546, "BSTAR": 0.0026010267, "MEAN_MOTION_DOT": 0.00019965, "MEAN_MOTION_DDOT": 0}, "tle": {"line1": "1 35043U 93036AHG 25355.36999858  .00019965  00000+0  26010-2 0  9993", "line2": "2 35043  73.9513  28.5607 0095789 236.5232 122.6761 14.77340350675461"}}, "geometry": {"type": "Point", "coordinates": [-12.427585562544632, -62.724676171555004]}}, {"type": "Feature", "properties": {"norad_id": 35045, "name": "COSMOS 2251 DEB", "group": "cosmos-2251-debris", "lat": -12.811856998139653, "lon": 27.33609602056557, "alt_km": 860.1512686077531, "timestamp": "2025-12-24T22:42:22.430054+00:00", "meta": {"OBJECT_NAME": "COSMOS 2251 DEB", "OBJECT_ID": "1993-036AHJ", "EPOCH": "2025-12-22T19:20:11.323968", "MEAN_MOTION": 14.00407667, "ECCENTRICITY": 0.01839618, "INCLINATION": 73.7191, "RA_OF_ASC_NODE": 34.9254, "ARG_OF_PERICENTER": 275.5727, "MEAN_ANOMALY": 82.445, "EPHEMERIS_TYPE": 0, "CLASSIFICATION_TYPE": "U", "NORAD_CAT_ID": 35045, "ELEMENT_SET_NO": 999, "REV_AT_EPOCH": 84784, "BSTAR": 0.00060913672, "MEAN_MOTION_DOT": 1.018e-05, "MEAN_MOTION_DDOT": 0}, "tle": {"line1": "1 35045U 93036AHJ 25356.80568662  .00001018  00000+0  60914-3 0  9992", "line2": "2 35045  73.7191  34.9254 0183961 275.5727  82.4450 14.00407667847846"}}, "geometry": {"type": "Point", "coordinates": [27.33609602056557, -12.811856998139653]}}]}